{"type": "FeatureCollection", "features": [ {"type": "Feature", "properties": {"norad_id": 37834, "name": "INTELSAT 18 (IS-18)", "group": "intelsat", "lat": -0.03353821015695598, "lon": -110.45603868150947, "alt_km": 35780.21760100764, "timestamp": "2025-12-20T22:39:10.313251+00:00", "meta": {"OBJECT_NAME": "INTELSAT 18 (IS-18)", "OBJECT_ID": "2011-056A", "EPOCH": "2025-12-20T08:45:38.947968", "MEAN_MOTION": 1.0027236, "ECCENTRICITY": 0.00016644, "INCLINATION": 0.0337, "RA_OF_ASC_NODE": 280.0178, "ARG_OF_PERICENTER": 6.1929, "MEAN_ANOMALY": 114.4011, "EPHEMERIS_TYPE": 0, "CLASSIFICATION_TYPE": "U", "NORAD_CAT_ID": 37834, "ELEMENT_SET_NO": 999, "REV_AT_EPOCH": 5201, "BSTAR": 0, "MEAN_MOTION_DOT": 7.7e-07, "MEAN_MOTION_DDOT": 0}, "tle": {"line1": "1 37834U 11056A   25354.36503412  .00000077  00000+0  00000+0 0  9993", "line2": "2 37834   0.0337 280.0178 0001664   6.1929 114.4011  1.00272360 52011"}}, "geometry": {"type": "Point", "coordinates": [-110.45603868150947, -0.03353821015695598]}}, {"type": "Feature", "properties": {"norad_id": 38098, "name": "INTELSAT 22 (IS-22)", "group": "intelsat", "lat": 0.03117118654369808, "lon": 141.6318349939857, "alt_km": 35791.906223684644, "timestamp": "2025-12-20T22:39:10.313261+00:00", "meta": {"OBJECT_NAME": "INTELSAT 22 (IS-22)", "OBJECT_ID": "2012-011A", "EPOCH": "2025-12-20T10:08:56.317920", "MEAN_MOTION": 1.00270562, "ECCENTRICITY": 0.00018059, "INCLINATION": 0.0147, "RA_OF_ASC_NODE": 41.4963, "ARG_OF_PERICENTER": 236.1011, "MEAN_ANOMALY": 35.9883, "EPHEMERIS_TYPE": 0, "CLASSIFICATION_TYPE": "U", "NORAD_CAT_ID": 38098, "ELEMENT_SET_NO": 999, "REV_AT_EPOCH": 539, "BSTAR": 0, "MEAN_MOTION_DOT": -3.5e-07, "MEAN_MOTION_DDOT": 0}, "tle": {"line1": "1 38098U 12011A   25354.42287405 -.00000035  00000+0  00000+0 0  9991", "line2": "2 38098   0.0147  41.4963 0001805 236.1011  35.9883  1.00270562  5393"}}, "geometry": {"type": "Point", "coordinates": [141.6318349939857, 0.03117118654369808]}}, {"type": "Feature", "properties": {"norad_id": 38356, "name": "INTELSAT 19 (IS-19)", "group": "intelsat", "lat": -0.03149726523958949, "lon": -124.46244278058654, "alt_km": 35776.187677137306, "timestamp": "2025-12-20T22:39:10.313272+00:00", "meta": {"OBJECT_NAME": "INTELSAT 19 (IS-19)", "OBJECT_ID": "2012-030A", "EPOCH": "2025-12-20T11:32:38.877792", "MEAN_MOTION": 1.00271305, "ECCENTRICITY": 0.00027428, "INCLINATION": 0.0116, "RA_OF_ASC_NODE": 4.2995, "ARG_OF_PERICENTER": 261.5808, "MEAN_ANOMALY": 162.5958, "EPHEMERIS_TYPE": 0, "CLASSIFICATION_TYPE": "U", "NORAD_CAT_ID": 38356, "ELEMENT_SET_NO": 999, "REV_AT_EPOCH": 4865, "BSTAR": 0, "MEAN_MOTION_DOT": -3.3e-07, "MEAN_MOTION_DDOT": 0}, "tle": {"line1": "1 38356U 12030A   25354.48100553 -.00000033  00000+0  00000+0 0  9991", "line2": "2 38356   0.0116   4.2995 0002742 261.5808 162.5958  1.00271305 48657"}}, "geometry": {"type": "Point", "coordinates": [-124.46244278058654, -0.03149726523958949]}}, {"type": "Feature", "properties": {"norad_id": 38740, "name": "INTELSAT 20 (IS-20)", "group": "intelsat", "lat": 0.005920688878378751, "lon": 138.01538596398598, "alt_km": 35776.32102312491, "timestamp": "2025-12-20T22:39:10.313283+00:00", "meta": {"OBJECT_NAME": "INTELSAT 20 (IS-20)", "OBJECT_ID": "2012-043A", "EPOCH": "2025-12-20T10:07:56.413344", "MEAN_MOTION": 1.00270417, "ECCENTRICITY": 0.00033818, "INCLINATION": 0.0114, "RA_OF_ASC_NODE": 99.7077, "ARG_OF_PERICENTER": 82.6812, "MEAN_ANOMALY": 127.3428, "EPHEMERIS_TYPE": 0, "CLASSIFICATION_TYPE": "U", "NORAD_CAT_ID": 38740, "ELEMENT_SET_NO": 999, "REV_AT_EPOCH": 4895, "BSTAR": 0, "MEAN_MOTION_DOT": 0, "MEAN_MOTION_DDOT": 0}, "tle": {"line1": "1 38740U 12043A   25354.42218071  .00000000  00000+0  00000+0 0  9994", "line2": "2 38740   0.0114  99.7077 0003381  82.6812 127.3428  1.00270417 48956"}}, "geometry": {"type": "Point", "coordinates": [138.01538596398598, 0.005920688878378751]}}, {"type": "Feature", "properties": {"norad_id": 38749, "name": "INTELSAT 21 (IS-21)", "group": "intelsat", "lat": 0.026857125953795302, "lon": 11.571306360965728, "alt_km": 35788.258297318775, "timestamp": "2025-12-20T22:39:10.313294+00:00", "meta": {"OBJECT_NAME": "INTELSAT 21 (IS-21)", "OBJECT_ID": "2012-045A", "EPOCH": "2025-12-20T11:14:35.030400", "MEAN_MOTION": 1.00272376, "ECCENTRICITY": 0.00014937, "INCLINATION": 0.0253, "RA_OF_ASC_NODE": 289.0499, "ARG_OF_PERICENTER": 331.1928, "MEAN_ANOMALY": 299.7052, "EPHEMERIS_TYPE": 0, "CLASSIFICATION_TYPE": "U", "NORAD_CAT_ID": 38749, "ELEMENT_SET_NO": 999, "REV_AT_EPOCH": 4873, "BSTAR": 0, "MEAN_MOTION_DOT": -2.61e-06, "MEAN_MOTION_DDOT": 0}, "tle": {"line1": "1 38749U 12045A   25354.46846100 -.00000261  00000+0  00000+0 0  9999", "line2": "2 38749   0.0253 289.0499 0001493 331.1928 299.7052  1.00272376 48732"}}, "geometry": {"type": "Point", "coordinates": [11.571306360965728, 0.026857125953795302]}}, {"type": "Feature", "properties": {"norad_id": 38867, "name": "INTELSAT 23 (IS-23)", "group": "intelsat", "lat": -0.005486261364347607, "lon": 16.587800471796264, "alt_km": 35786.230518038654, "timestamp": "2025-12-20T22:39:10.313304+00:00", "meta": {"OBJECT_NAME": "INTELSAT 23 (IS-23)", "OBJECT_ID": "2012-057A", "EPOCH": "2025-12-20T11:15:57.398976", "MEAN_MOTION": 1.00269534, "ECCENTRICITY": 6.091e-05, "INCLINATION": 0.0148, "RA_OF_ASC_NODE": 49.0714, "ARG_OF_PERICENTER": 249.8393, "MEAN_ANOMALY": 266.4118, "EPHEMERIS_TYPE": 0, "CLASSIFICATION_TYPE": "U", "NORAD_CAT_ID": 38867, "ELEMENT_SET_NO": 999, "REV_AT_EPOCH": 4816, "BSTAR": 0, "MEAN_MOTION_DOT": -2.61e-06, "MEAN_MOTION_DDOT": 0}, "tle": {"line1": "1 38867U 12057A   25354.46941434 -.00000261  00000+0  00000+0 0  9999", "line2": "2 38867   0.0148  49.0714 0000609 249.8393 266.4118  1.00269534 48162"}}, "geometry": {"type": "Point", "coordinates": [16.587800471796264, -0.005486261364347607]}}, {"type": "Feature", "properties": {"norad_id": 39360, "name": "FM-6", "group": "intelsat", "lat": -0.022469092569905882, "lon": -46.57035123084294, "alt_km": 35793.49595050133, "timestamp": "2025-12-20T22:39:10.313315+00:00", "meta": {"OBJECT_NAME": "FM-6", "OBJECT_ID": "2013-058A", "EPOCH": "2025-12-20T10:57:59.119200", "MEAN_MOTION": 1.00274457, "ECCENTRICITY": 0.00029342, "INCLINATION": 0.0121, "RA_OF_ASC_NODE": 67.0119, "ARG_OF_PERICENTER": 114.7093, "MEAN_ANOMALY": 315.9111, "EPHEMERIS_TYPE": 0, "CLASSIFICATION_TYPE": "U", "NORAD_CAT_ID": 39360, "ELEMENT_SET_NO": 999, "REV_AT_EPOCH": 4428, "BSTAR": 0, "MEAN_MOTION_DOT": 6e-08, "MEAN_MOTION_DDOT": 0}, "tle": {"line1": "1 39360U 13058A   25354.45693425  .00000006  00000+0  00000+0 0  9999", "line2": "2 39360   0.0121  67.0119 0002934 114.7093 315.9111  1.00274457 44283"}}, "geometry": {"type": "Point", "coordinates": [-46.57035123084294, -0.022469092569905882]}}, {"type": "Feature", "properties": {"norad_id": 40271, "name": "INTELSAT 30 (IS-30)", "group": "intelsat", "lat": -0.02342937851200302, "lon": -25.501012914268884, "alt_km": 35786.81322961858, "timestamp": "2025-12-20T22:39:10.313325+00:00", "meta": {"OBJECT_NAME": "INTELSAT 30 (IS-30)", "OBJECT_ID": "2014-062A", "EPOCH": "2025-12-20T12:34:47.341056", "MEAN_MOTION": 1.00276751, "ECCENTRICITY": 0.00014642, "INCLINATION": 0.0135, "RA_OF_ASC_NODE": 19.8548, "ARG_OF_PERICENTER": 64.3977, "MEAN_ANOMALY": 98.7545, "EPHEMERIS_TYPE": 0, "CLASSIFICATION_TYPE": "U", "NORAD_CAT_ID": 40271, "ELEMENT_SET_NO": 999, "REV_AT_EPOCH": 500, "BSTAR": 0, "MEAN_MOTION_DOT": -1.28e-06, "MEAN_MOTION_DDOT": 0}, "tle": {"line1": "1 40271U 14062A   25354.52415904 -.00000128  00000+0  00000+0 0  9996", "line2": "2 40271   0.0135  19.8548 0001464  64.3977  98.7545  1.00276751  5003"}}, "geometry": {"type": "Point", "coordinates": [-25.501012914268884, -0.02342937851200302]}}, {"type": "Feature", "properties": {"norad_id": 40333, "name": "DIRECTV 14", "group": "intelsat", "lat": -0.0163466464924579, "lon": -29.66456452873494, "alt_km": 35788.003683774965, "timestamp": "2025-12-20T22:39:10.313336+00:00", "meta": {"OBJECT_NAME": "DIRECTV 14", "OBJECT_ID": "2014-078B", "EPOCH": "2025-12-20T12:09:57.950208", "MEAN_MOTION": 1.00270832, "ECCENTRICITY": 3.933e-05, "INCLINATION": 0.0187, "RA_OF_ASC_NODE": 347.3477, "ARG_OF_PERICENTER": 155.8476, "MEAN_ANOMALY": 29.4192, "EPHEMERIS_TYPE": 0, "CLASSIFICATION_TYPE": "U", "NORAD_CAT_ID": 40333, "ELEMENT_SET_NO": 999, "REV_AT_EPOCH": 4025, "BSTAR": 0, "MEAN_MOTION_DOT": -1.02e-06, "MEAN_MOTION_DDOT": 0}, "tle": {"line1": "1 40333U 14078B   25354.50692072 -.00000102  00000+0  00000+0 0  9995", "line2": "2 40333   0.0187 347.3477 0000393 155.8476  29.4192  1.00270832 40258"}}, "geometry": {"type": "Point", "coordinates": [-29.66456452873494, -0.0163466464924579]}}, {"type": "Feature", "properties": {"norad_id": 40663, "name": "DIRECTV 15", "group": "intelsat", "lat": -0.03455338010543001, "lon": -33.33078354591187, "alt_km": 35787.88271530735, "timestamp": "2025-12-20T22:39:10.313346+00:00", "meta": {"OBJECT_NAME": "DIRECTV 15", "OBJECT_ID": "2015-026A", "EPOCH": "2025-12-20T12:06:43.368768", "MEAN_MOTION": 1.00269898, "ECCENTRICITY": 3.215e-05, "INCLINATION": 0.0255, "RA_OF_ASC_NODE": 13.1615, "ARG_OF_PERICENTER": 112.234, "MEAN_ANOMALY": 42.7419, "EPHEMERIS_TYPE": 0, "CLASSIFICATION_TYPE": "U", "NORAD_CAT_ID": 40663, "ELEMENT_SET_NO": 999, "REV_AT_EPOCH": 3867, "BSTAR": 0, "MEAN_MOTION_DOT": 0, "MEAN_MOTION_DDOT": 0}, "tle": {"line1": "1 40663U 15026A   25354.50466862  .00000000  00000+0  00000+0 0  9997", "line2": "2 40663   0.0255  13.1615 0000321 112.2340  42.7419  1.00269898 38673"}}, "geometry": {"type": "Point", "coordinates": [-33.33078354591187, -0.03455338010543001]}}]}